KUIPER-00513            
1 69598U 26140G   26195.55052654  .00011935  00000+0  32246-3 0  9993
2 69598  51.8801 266.3737 0007421 335.0290  25.0338 15.38148514  5446
KUIPER-00516            
1 69599U 26140H   26195.55858735  .00009091  00000+0  25274-3 0  9991
2 69599  51.8774 266.4200 0007069 352.8275   7.2609 15.37583075  5447
KUIPER-00517            
1 69600U 26140J   26195.53560814  .00016998  00000+0  44436-3 0  9995
2 69600  51.8780 266.2703 0010479 289.7075  70.2782 15.38821702  5443
KUIPER-00520            
1 69601U 26140K   26195.55948032  .00007645  00000+0  21391-3 0  9994
2 69601  51.8804 266.4353 0006850 353.5232   6.5665 15.37636953  5440
KUIPER-00522            
1 69602U 26140L   26195.40239791  .00022536  00000+0  58784-3 0  9996
2 69602  51.8766 266.8758 0013533 262.0154  97.9298 15.38654927  5420
KUIPER-00528            
1 69603U 26140M   26195.56210615  .00007629  00000+0  21453-3 0  9997
2 69603  51.8773 266.4415 0005814   0.1790 359.9198 15.37486448  5447
KUIPER-00532            
1 69604U 26140N   26195.50796617  .00013621  00000+0  38579-3 0  9999
2 69604  51.8782 266.8264 0005222  33.7129 326.4188 15.36556816  5438
KUIPER-00533            
1 69605U 26140P   26195.54660388  .00017024  00000+0  45335-3 0  9998
2 69605  51.8782 266.3406 0008033 324.8783  35.1674 15.38270266  5444
KUIPER-00534            
1 69606U 26140Q   26195.39733054  .00018224  00000+0  47665-3 0  9994
2 69606  51.8808 266.8511 0013415 262.9424  97.0038 15.38718731  5423
KUIPER-00537            
1 69607U 26140R   26195.53104560  .00012642  00000+0  38700-3 0  9993
2 69607  51.8799 266.9829 0010095  53.2474 306.9437 15.34145433  5438
KUIPER-00538            
1 69608U 26140S   26195.55703666  .00007818  00000+0  21793-3 0  9991
2 69608  51.8800 266.4163 0006672 340.5884  19.4848 15.37720478  5445
KUIPER-00540            
1 69609U 26140T   26195.50362145  .00009367  00000+0  26536-3 0  9991
2 69609  51.8813 266.8078 0006662  21.7928 338.3341 15.36957918  5435
KUIPER-00541            
1 69610U 26140U   26195.54629566 -.00008088  00000+0 -19967-3 0  9991
2 69610  51.8805 266.3511 0007543 318.5864  41.4551 15.38428649  5442
KUIPER-00542            
1 69611U 26140V   26195.54504626  .00014367  00000+0  38418-3 0  9998
2 69611  51.8780 266.3297 0007885 300.2753  59.7453 15.38284690  5449
KUIPER-00543            
1 69612U 26140W   26195.50813029  .00011162  00000+0  31528-3 0  9990
2 69612  51.8792 266.8269 0008160  32.6543 327.4947 15.36830922  5432
KUIPER-00544            
1 69613U 26140X   26195.48450930  .00014780  00000+0  39647-3 0  9995
2 69613  51.8777 266.6750 0006809 317.9853  42.0611 15.38169430  5439
KUIPER-00546            
1 69614U 26140Y   26195.72275956 -.00157507  00000+0 -41837-2 0  9996
2 69614  51.8805 265.2809 0014337 257.3045 102.6340 15.38166664  5479
KUIPER-00547            
1 69615U 26140Z   26195.47856029  .00016324  00000+0  43981-3 0  9997
2 69615  51.8805 266.6446 0010914 287.1660  72.8132 15.37917453  5435
KUIPER-00549            
1 69616U 26140AA  26195.49872269  .00010489  00000+0  29227-3 0  9997
2 69616  51.8786 266.7659 0007924  13.3648 346.7547 15.37328863  5437
KUIPER-00550            
1 69617U 26140AB  26195.83335647 -.00024649  00000+0 -77371-3 0  9998
2 69617  51.8784 265.6865 0007727  60.2921  88.9739 15.32098455  4724
KUIPER-00551            
1 69618U 26140AC  26195.47043122  .00014975  00000+0  39848-3 0  9999
2 69618  51.8774 266.5817 0012611 266.7974  93.1570 15.38356171  5438
KUIPER-00554            
1 69619U 26140AD  26195.54172073  .00013725  00000+0  37084-3 0  9998
2 69619  51.8787 266.3099 0011174 288.8404  71.1371 15.37977697  5446
KUIPER-00555            
1 69620U 26140AE  26195.53903068  .00014233  00000+0  38444-3 0  9991
2 69620  51.8822 266.3014 0011393 276.7392  83.2298 15.37950646  5447
KUIPER-00556            
1 69621U 26140AF  26193.84906221 -.00181525  00000+0 -48965-2 0  9997
2 69621  51.8804 274.4699 0010620 249.9236 110.0608 15.37854962  5187
KUIPER-00557            
1 69622U 26140AG  26195.48240038  .00009361  00000+0  26028-3 0  9999
2 69622  51.8801 266.6669 0009869 297.9736  62.0251 15.37521058  5431
KUIPER-00560            
1 69623U 26140AH  26195.53825574 -.02361808  00000+0 -75531-1 0  9992
2 69623  51.8772 266.2881 0009177 279.0487  80.9460 15.35526551  5440
KUIPER-00561            
1 69624U 26140AJ  26195.67033772  .00011879  00000+0  31506-3 0  9991
2 69624  51.8811 265.6836 0008127 304.5903  55.4318 15.38721602  5467
KUIPER-00564            
1 69625U 26140AK  26195.54426352  .00014569  00000+0  40315-3 0  9995
2 69625  51.8801 266.3339 0009447 302.1244  57.8825 15.37196641  5446
KUIPER-00567            
1 69626U 26140AL  26195.47110635  .00014387  00000+0  38479-3 0  9998
2 69626  51.8779 266.5872 0012188 275.8734  84.0864 15.38238816  5437
KUIPER-00573            
1 69627U 26140AM  26195.48619866  .00012740  00000+0  35091-3 0  9998
2 69627  51.8776 266.6854 0009325 283.3972  76.5975 15.37467868  5432
